CTC1_L_00099001-01
1 10000U 25527OB  26075.70030093  .00000000  00000+0  00000-0 0  9993
2 10000  70.0000   0.0000 0000000   0.0000   0.0000 14.42576008    18
CTC1_L_00099001-02
1 10001U 24088XI  26075.70030093  .00000000  00000+0  00000-0 0  9995
2 10001  70.0000   0.0000 0000000   0.0000  90.0000 14.42576008    18
CTC1_L_00099001-03
1 10002U 26867MI  26075.70030093  .00000000  00000+0  00000-0 0  9993
2 10002  70.0000   0.0000 0000000   0.0000 180.0000 14.42576008    19
CTC1_L_00099001-04
1 10003U 26965PD  26075.70030093  .00000000  00000+0  00000-0 0  9993
2 10003  70.0000   0.0000 0000000   0.0000 270.0000 14.42576008    10
CTC1_L_00099002-01
1 10004U 23670PW  26075.70030093  .00000000  00000+0  00000-0 0  9994
2 10004  70.0000  12.0000 0000000   0.0000  12.0000 14.42576008    18
CTC1_L_00099002-02
1 10005U 25652PC  26075.70030093  .00000000  00000+0  00000-0 0  9997
2 10005  70.0000  12.0000 0000000   0.0000 102.0000 14.42576008    19
CTC1_L_00099002-03
1 10006U 24957RM  26075.70030093  .00000000  00000+0  00000-0 0  9995
2 10006  70.0000  12.0000 0000000   0.0000 192.0000 14.42576008    19
CTC1_L_00099002-04
1 10007U 22358LB  26075.70030093  .00000000  00000+0  00000-0 0  9999
2 10007  70.0000  12.0000 0000000   0.0000 282.0000 14.42576008    10
CTC1_L_00099003-01
1 10008U 22757AZ  26075.70030093  .00000000  00000+0  00000-0 0  9993
2 10008  70.0000  24.0000 0000000   0.0000  24.0000 14.42576008    18
CTC1_L_00099003-02
1 10009U 25728EK  26075.70030093  .00000000  00000+0  00000-0 0  9995
2 10009  70.0000  24.0000 0000000   0.0000 114.0000 14.42576008    19
CTC1_L_00099003-03
1 10010U 24578VF  26075.70030093  .00000000  00000+0  00000-0 0  9999
2 10010  70.0000  24.0000 0000000   0.0000 204.0000 14.42576008    11
CTC1_L_00099003-04
1 10011U 24926EL  26075.70030093  .00000000  00000+0  00000-0 0  9997
2 10011  70.0000  24.0000 0000000   0.0000 294.0000 14.42576008    11
CTC1_L_00099004-01
1 10012U 22574PQ  26075.70030093  .00000000  00000+0  00000-0 0  9995
2 10012  70.0000  36.0000 0000000   0.0000  36.0000 14.42576008    19
CTC1_L_00099004-02
1 10013U 22560WM  26075.70030093  .00000000  00000+0  00000-0 0  9991
2 10013  70.0000  36.0000 0000000   0.0000 126.0000 14.42576008    10
CTC1_L_00099004-03
1 10014U 25395WL  26075.70030093  .00000000  00000+0  00000-0 0  9991
2 10014  70.0000  36.0000 0000000   0.0000 216.0000 14.42576008    11
CTC1_L_00099004-04
1 10015U 26617IR  26075.70030093  .00000000  00000+0  00000-0 0  9990
2 10015  70.0000  36.0000 0000000   0.0000 306.0000 14.42576008    12
CTC1_L_00099005-01
1 10016U 23745GL  26075.70030093  .00000000  00000+0  00000-0 0  9990
2 10016  70.0000  48.0000 0000000   0.0000  48.0000 14.42576008    19
CTC1_L_00099005-02
1 10017U 26760KO  26075.70030093  .00000000  00000+0  00000-0 0  9991
2 10017  70.0000  48.0000 0000000   0.0000 138.0000 14.42576008    10
CTC1_L_00099005-03
1 10018U 23105DS  26075.70030093  .00000000  00000+0  00000-0 0  9992
2 10018  70.0000  48.0000 0000000   0.0000 228.0000 14.42576008    11
CTC1_L_00099005-04
1 10019U 26516S   26075.70030093  .00000000  00000+0  00000-0 0  9992
2 10019  70.0000  48.0000 0000000   0.0000 318.0000 14.42576008    12
CTC1_L_00099006-01
1 10020U 23748SA  26075.70030093  .00000000  00000+0  00000-0 0  9998
2 10020  70.0000  60.0000 0000000   0.0000  60.0000 14.42576008    12
CTC1_L_00099006-02
1 10021U 22245T   26075.70030093  .00000000  00000+0  00000-0 0  9990
2 10021  70.0000  60.0000 0000000   0.0000 150.0000 14.42576008    13
CTC1_L_00099006-03
1 10022U 26474EH  26075.70030093  .00000000  00000+0  00000-0 0  9999
2 10022  70.0000  60.0000 0000000   0.0000 240.0000 14.42576008    14
CTC1_L_00099006-04
1 10023U 25516DK  26075.70030093  .00000000  00000+0  00000-0 0  9996
2 10023  70.0000  60.0000 0000000   0.0000 330.0000 14.42576008    15
CTC1_L_00099007-01
1 10024U 23342TF  26075.70030093  .00000000  00000+0  00000-0 0  9992
2 10024  70.0000  72.0000 0000000   0.0000  72.0000 14.42576008    12
CTC1_L_00099007-02
1 10025U 22992LY  26075.70030093  .00000000  00000+0  00000-0 0  9993
2 10025  70.0000  72.0000 0000000   0.0000 162.0000 14.42576008    13
CTC1_L_00099007-03
1 10026U 25196MK  26075.70030093  .00000000  00000+0  00000-0 0  9993
2 10026  70.0000  72.0000 0000000   0.0000 252.0000 14.42576008    14
CTC1_L_00099007-04
1 10027U 24514GV  26075.70030093  .00000000  00000+0  00000-0 0  9997
2 10027  70.0000  72.0000 0000000   0.0000 342.0000 14.42576008    15
CTC1_L_00099008-01
1 10028U 24303SH  26075.70030093  .00000000  00000+0  00000-0 0  9994
2 10028  70.0000  84.0000 0000000   0.0000  84.0000 14.42576008    12
CTC1_L_00099008-02
1 10029U 26176FD  26075.70030093  .00000000  00000+0  00000-0 0  9995
2 10029  70.0000  84.0000 0000000   0.0000 174.0000 14.42576008    13
CTC1_L_00099008-03
1 10030U 24291KL  26075.70030093  .00000000  00000+0  00000-0 0  9993
2 10030  70.0000  84.0000 0000000   0.0000 264.0000 14.42576008    15
CTC1_L_00099008-04
1 10031U 24536X   26075.70030093  .00000000  00000+0  00000-0 0  9996
2 10031  70.0000  84.0000 0000000   0.0000 354.0000 14.42576008    16
CTC1_L_00099009-01
1 10032U 26943OF  26075.70030093  .00000000  00000+0  00000-0 0  9991
2 10032  70.0000  96.0000 0000000   0.0000  96.0000 14.42576008    13
CTC1_L_00099009-02
1 10033U 23041HZ  26075.70030093  .00000000  00000+0  00000-0 0  9998
2 10033  70.0000  96.0000 0000000   0.0000 186.0000 14.42576008    14
CTC1_L_00099009-03
1 10034U 24425XB  26075.70030093  .00000000  00000+0  00000-0 0  9996
2 10034  70.0000  96.0000 0000000   0.0000 276.0000 14.42576008    15
CTC1_L_00099009-04
1 10035U 22880KJ  26075.70030093  .00000000  00000+0  00000-0 0  9990
2 10035  70.0000  96.0000 0000000   0.0000   6.0000 14.42576008    17
CTC1_L_00099010-01
1 10036U 23810HG  26075.70030093  .00000000  00000+0  00000-0 0  9995
2 10036  70.0000 108.0000 0000000   0.0000 108.0000 14.42576008    15
CTC1_L_00099010-02
1 10037U 26391GD  26075.70030093  .00000000  00000+0  00000-0 0  9993
2 10037  70.0000 108.0000 0000000   0.0000 198.0000 14.42576008    15
CTC1_L_00099010-03
1 10038U 24428SW  26075.70030093  .00000000  00000+0  00000-0 0  9993
2 10038  70.0000 108.0000 0000000   0.0000 288.0000 14.42576008    16
CTC1_L_00099010-04
1 10039U 26964MJ  26075.70030093  .00000000  00000+0  00000-0 0  9991
2 10039  70.0000 108.0000 0000000   0.0000  18.0000 14.42576008    18
CTC1_L_00099011-01
1 10040U 23075SF  26075.70030093  .00000000  00000+0  00000-0 0  9993
2 10040  70.0000 120.0000 0000000   0.0000 120.0000 14.42576008    18
CTC1_L_00099011-02
1 10041U 25425IF  26075.70030093  .00000000  00000+0  00000-0 0  9995
2 10041  70.0000 120.0000 0000000   0.0000 210.0000 14.42576008    19
CTC1_L_00099011-03
1 10042U 24299JG  26075.70030093  .00000000  00000+0  00000-0 0  9994
2 10042  70.0000 120.0000 0000000   0.0000 300.0000 14.42576008    10
CTC1_L_00099011-04
1 10043U 26368A   26075.70030093  .00000000  00000+0  00000-0 0  9994
2 10043  70.0000 120.0000 0000000   0.0000  30.0000 14.42576008    11
CTC1_L_00099012-01
1 10044U 26624SZ  26075.70030093  .00000000  00000+0  00000-0 0  9990
2 10044  70.0000 132.0000 0000000   0.0000 132.0000 14.42576008    18
CTC1_L_00099012-02
1 10045U 25127ND  26075.70030093  .00000000  00000+0  00000-0 0  9998
2 10045  70.0000 132.0000 0000000   0.0000 222.0000 14.42576008    19
CTC1_L_00099012-03
1 10046U 25170CV  26075.70030093  .00000000  00000+0  00000-0 0  9997
2 10046  70.0000 132.0000 0000000   0.0000 312.0000 14.42576008    10
CTC1_L_00099012-04
1 10047U 25379BK  26075.70030093  .00000000  00000+0  00000-0 0  9999
2 10047  70.0000 132.0000 0000000   0.0000  42.0000 14.42576008    11
CTC1_L_00099013-01
1 10048U 25335PR  26075.70030093  .00000000  00000+0  00000-0 0  9992
2 10048  70.0000 144.0000 0000000   0.0000 144.0000 14.42576008    18
CTC1_L_00099013-02
1 10049U 24859AT  26075.70030093  .00000000  00000+0  00000-0 0  9993
2 10049  70.0000 144.0000 0000000   0.0000 234.0000 14.42576008    19
CTC1_L_00099013-03
1 10050U 22235BA  26075.70030093  .00000000  00000+0  00000-0 0  9991
2 10050  70.0000 144.0000 0000000   0.0000 324.0000 14.42576008    11
CTC1_L_00099013-04
1 10051U 22291UM  26075.70030093  .00000000  00000+0  00000-0 0  9994
2 10051  70.0000 144.0000 0000000   0.0000  54.0000 14.42576008    12
CTC1_L_00099014-01
1 10052U 26793SE  26075.70030093  .00000000  00000+0  00000-0 0  9996
2 10052  70.0000 156.0000 0000000   0.0000 156.0000 14.42576008    19
CTC1_L_00099014-02
1 10053U 26167DS  26075.70030093  .00000000  00000+0  00000-0 0  9992
2 10053  70.0000 156.0000 0000000   0.0000 246.0000 14.42576008    10
CTC1_L_00099014-03
1 10054U 25554BM  26075.70030093  .00000000  00000+0  00000-0 0  9992
2 10054  70.0000 156.0000 0000000   0.0000 336.0000 14.42576008    11
CTC1_L_00099014-04
1 10055U 25204EM  26075.70030093  .00000000  00000+0  00000-0 0  9995
2 10055  70.0000 156.0000 0000000   0.0000  66.0000 14.42576008    12
CTC1_L_00099015-01
1 10056U 25022NX  26075.70030093  .00000000  00000+0  00000-0 0  9994
2 10056  70.0000 168.0000 0000000   0.0000 168.0000 14.42576008    19
CTC1_L_00099015-02
1 10057U 23055JJ  26075.70030093  .00000000  00000+0  00000-0 0  9999
2 10057  70.0000 168.0000 0000000   0.0000 258.0000 14.42576008    10
CTC1_L_00099015-03
1 10058U 22754HK  26075.70030093  .00000000  00000+0  00000-0 0  9995
2 10058  70.0000 168.0000 0000000   0.0000 348.0000 14.42576008    11
CTC1_L_00099015-04
1 10059U 25636MY  26075.70030093  .00000000  00000+0  00000-0 0  9998
2 10059  70.0000 168.0000 0000000   0.0000  78.0000 14.42576008    12
CTC1_L_00099016-01
1 10060U 22605EJ  26075.70030093  .00000000  00000+0  00000-0 0  9993
2 10060  70.0000 180.0000 0000000   0.0000 180.0000 14.42576008    12
CTC1_L_00099016-02
1 10061U 25059YP  26075.70030093  .00000000  00000+0  00000-0 0  9990
2 10061  70.0000 180.0000 0000000   0.0000 270.0000 14.42576008    13
